[{"OBJECT_NAME":"STARLINK-30533","OBJECT_ID":"2023-156K","EPOCH":"2026-03-09T13:37:37.629696","MEAN_MOTION":15.30188896,"ECCENTRICITY":0.0001151,"INCLINATION":53.1581,"RA_OF_ASC_NODE":168.7677,"ARG_OF_PERICENTER":90.523,"MEAN_ANOMALY":269.5902,"EPHEMERIS_TYPE":0,"CLASSIFICATION_TYPE":"U","NORAD_CAT_ID":58037,"ELEMENT_SET_NO":999,"REV_AT_EPOCH":13501,"BSTAR":0.00069771,"MEAN_MOTION_DOT":0.00020354,"MEAN_MOTION_DDOT":0},{"OBJECT_NAME":"SL-19 R\/B","OBJECT_ID":"2011-005B","EPOCH":"2026-03-09T21:50:35.538720","MEAN_MOTION":15.57556472,"ECCENTRICITY":0.01260184,"INCLINATION":99.3438,"RA_OF_ASC_NODE":178.5978,"ARG_OF_PERICENTER":174.8144,"MEAN_ANOMALY":185.4445,"EPHEMERIS_TYPE":0,"CLASSIFICATION_TYPE":"U","NORAD_CAT_ID":37363,"ELEMENT_SET_NO":999,"REV_AT_EPOCH":82354,"BSTAR":0.00054776137,"MEAN_MOTION_DOT":0.00058791,"MEAN_MOTION_DDOT":0}]
